0 SL-8 R/B
1 10938U 78056J   13282.82443175  .00000036  00000-0  47244-3 0  6009
2 10938 074.0227 170.8854 0133302 243.8257 231.9270 12.21519590576086
0 SL-8 R/B
1 10938U 78056J   13287.17870567 -.00000016  00000-0 -66876-5 0  6027
2 10938 074.0217 165.3979 0133280 237.6407 299.7038 12.21520815576610
0 SL-8 R/B
1 10938U 78056J   13289.52851530  .00000059  00000-0  68808-3 0  6038
2 10938 074.0212 162.4366 0133266 234.3058 192.9230 12.21520431576907
0 SL-8 R/B
1 10938U 78056J   13292.08861519  .00000074  00000-0  82523-3 0  6049
2 10938 074.0208 159.2103 0133221 230.6651 290.8935 12.21520683577218
0 SL-8 R/B
1 10938U 78056J   13294.12271168 -.00000050  00000-0 -32413-3 0  6051
2 10938 074.0207 156.6466 0133161 227.7627 235.7820 12.21522039577468
0 SL-8 R/B
1 10938U 78056J   13296.16459955  .00000018  00000-0  30504-3 0  6061
2 10938 074.0206 154.0730 0133174 224.8728 214.9244 12.21521886577713
